OBJECT_NAME,OBJECT_ID,EPOCH,MEAN_MOTION,ECCENTRICITY,INCLINATION,RA_OF_ASC_NODE,ARG_OF_PERICENTER,MEAN_ANOMALY,EPHEMERIS_TYPE,CLASSIFICATION_TYPE,NORAD_CAT_ID,ELEMENT_SET_NO,REV_AT_EPOCH,BSTAR,MEAN_MOTION_DOT,MEAN_MOTION_DDOT
STARLINK-11653 [DTC],2025-053C,2026-06-07T15:23:37.190688,15.70912833,.0001535,42.9959,290.2885,236.3544,123.7178,0,U,63267,999,7181,.10608E-2,.138386E-2,0
STARLINK-11641 [DTC],2025-053D,2026-06-07T15:54:00.889056,15.70852106,.0002257,43.0010,289.5645,263.4844,96.5766,0,U,63268,999,7182,.71085E-3,.91828E-3,0
STARLINK-11638 [DTC],2025-053E,2026-06-07T16:01:39.426816,15.70887660,.0001356,42.9987,289.6070,265.0851,94.9861,0,U,63269,999,7182,.44842E-3,.57605E-3,0
STARLINK-11614 [DTC],2025-053F,2026-06-07T13:44:25.029024,15.70955694,.0004165,43.0022,290.6339,289.3307,70.7110,0,U,63270,999,7180,.12057E-2,.158053E-2,0
STARLINK-11620 [DTC],2025-053G,2026-06-07T15:38:54.655008,15.70866970,.0001803,42.9993,290.3780,251.6007,108.4664,0,U,63271,999,7181,.653E-3,.84292E-3,0
STARLINK-11619 [DTC],2025-053H,2026-06-07T15:00:40.970016,15.70892455,.0002024,42.9995,290.1645,277.3021,82.7616,0,U,63272,999,7181,.10444E-2,.136083E-2,0
STARLINK-11621 [DTC],2025-053J,2026-06-07T15:46:22.302912,15.70921712,.0002367,42.9991,289.5236,256.2831,103.7773,0,U,63273,999,7182,.15089E-2,.198552E-2,0
STARLINK-11615 [DTC],2025-053K,2026-06-06T19:18:02.122272,15.70862170,.00038152,42.9966,295.1929,267.2944,92.7487,0,U,63274,999,7168,.1430391E-2,.187504E-2,0
STARLINK-11608 [DTC],2025-053L,2026-06-07T02:25:16.106304,15.70887077,.0001996,43.0013,293.1036,269.5971,90.4668,0,U,63275,999,7172,.16376E-2,.215654E-2,0
STARLINK-11623 [DTC],2025-053M,2026-06-07T15:31:16.023072,15.70869183,.0002185,43.0003,290.3361,258.0931,101.9692,0,U,63276,999,7180,.1034E-2,.134564E-2,0
STARLINK-33660,2025-053P,2026-06-07T13:13:50.104704,15.27581018,.0003934,43.0049,94.5453,263.6569,96.3835,0,U,63278,999,6993,.96869E-3,.26494E-3,0
STARLINK-33611,2025-053Q,2026-06-07T03:01:30.021024,15.27599188,.0002012,43.0022,93.0530,270.2497,89.8124,0,U,63279,999,7002,.8816E-3,.24092E-3,0
STARLINK-33646,2025-053R,2026-06-07T12:22:02.338176,15.27569428,.000218,43.0015,94.2714,265.8243,94.2359,0,U,63280,999,6993,.99488E-3,.27208E-3,0
STARLINK-33665,2025-053S,2026-06-05T03:20:56.983488,15.27604237,.00003584,42.9968,107.3951,188.2751,171.8095,0,U,63281,999,6957,.84112435E-3,.22973E-3,0
STARLINK-33603,2025-053T,2026-06-07T02:20:17.812032,15.27618693,.0003409,43.0002,97.1394,282.4286,77.6184,0,U,63282,999,6986,.7058E-3,.19235E-3,0
STARLINK-33669,2025-053U,2026-06-07T02:36:44.918208,15.27574019,.0001446,43.0004,96.3744,265.5426,94.5260,0,U,63283,999,6987,.43364E-4,.931E-5,0
STARLINK-33673,2025-053V,2026-06-07T01:48:11.557728,15.27626333,.0000588,43.0045,89.1894,268.4345,91.6439,0,U,63284,999,7006,.10637E-2,.29164E-3,0
STARLINK-33662,2025-053W,2026-06-07T12:33:08.554752,15.27560487,.0001712,42.9996,94.3273,270.8302,89.2354,0,U,63285,999,6993,.72453E-3,.19717E-3,0
STARLINK-33613,2025-053X,2026-06-07T13:04:35.046048,15.27587116,.0004315,43.0032,94.4956,263.6254,96.4107,0,U,63286,999,6993,.6731E-3,.18313E-3,0
STARLINK-33680,2025-053Y,2026-06-07T12:10:55.768224,15.27611651,.0002699,42.9964,94.2085,276.8479,83.2065,0,U,63287,999,6998,.88031E-3,.24066E-3,0
COSMOS 2585 (RODNIK-S 19),2025-054A,2026-06-07T21:10:17.059296,12.42866971,.0025706,82.4938,84.4337,56.1685,304.1836,0,U,63288,999,5570,.21134E-3,.39E-6,0
COSMOS 2586 (RODNIK-S 20),2025-054B,2026-06-07T20:34:42.000384,12.42876969,.0022098,82.4924,84.3518,45.0848,315.2020,0,U,63289,999,5569,.19484E-3,.37E-6,0
COSMOS 2587 (RODNIK-S 21),2025-054C,2026-06-07T19:54:05.933376,12.42892719,.0015898,82.4976,84.5330,35.3641,324.8490,0,U,63290,999,5569,.25501E-3,.45E-6,0
2025-055A,2025-055A,2026-06-07T20:14:09.167424,15.16532454,.001608,97.6524,298.6569,171.8339,188.3159,0,U,63291,999,6763,.50425E-3,.98E-4,0
2025-055B,2025-055B,2026-06-07T19:11:44.392704,15.11547315,.0036675,97.6500,299.6350,182.9818,177.1199,0,U,63292,999,6766,.52762E-3,.9028E-4,0
2025-055C,2025-055C,2026-06-07T19:21:24.719040,15.10081100,.004324,97.6506,299.5312,170.9886,189.2129,0,U,63293,999,6765,.53848E-3,.8901E-4,0
2025-055D,2025-055D,2026-06-07T20:29:30.050592,15.16512005,.0015721,97.6512,298.5643,167.4111,192.7518,0,U,63294,999,6759,.52472E-3,.10194E-3,0
2025-055E,2025-055E,2026-06-07T20:34:33.185856,15.16569377,.001427,97.6498,298.4827,162.9337,197.2379,0,U,63295,999,6759,.52123E-3,.10136E-3,0
2025-055F,2025-055F,2026-06-07T21:17:43.977120,15.16464101,.0012536,97.6519,298.5824,153.5445,206.6430,0,U,63296,999,6759,.47875E-3,.927E-4,0
2025-055G,2025-055G,2026-06-07T20:49:32.354112,15.25084753,.0008751,97.6468,301.8334,179.5187,180.6060,0,U,63297,999,6781,.81061E-3,.20261E-3,0
