STARLINK-11653 [DTC]    
1 63267U 25053C   26158.64140267  .00138386  00000+0  10608-2 0  9996
2 63267  42.9959 290.2885 0001535 236.3544 123.7178 15.70912833 71814
STARLINK-11641 [DTC]    
1 63268U 25053D   26158.66251029  .00091828  00000+0  71085-3 0  9994
2 63268  43.0010 289.5645 0002257 263.4844  96.5766 15.70852106 71823
STARLINK-11638 [DTC]    
1 63269U 25053E   26158.66781744  .00057605  00000+0  44842-3 0  9993
2 63269  42.9987 289.6070 0001356 265.0851  94.9861 15.70887660 71824
STARLINK-11614 [DTC]    
1 63270U 25053F   26158.57251191  .00158053  00000+0  12057-2 0  9994
2 63270  43.0022 290.6339 0004165 289.3307  70.7110 15.70955694 71804
STARLINK-11620 [DTC]    
1 63271U 25053G   26158.65202147  .00084292  00000+0  65300-3 0  9994
2 63271  42.9993 290.3780 0001803 251.6007 108.4664 15.70866970 71814
STARLINK-11619 [DTC]    
1 63272U 25053H   26158.62547419  .00136083  00000+0  10444-2 0  9990
2 63272  42.9995 290.1645 0002024 277.3021  82.7616 15.70892455 71810
STARLINK-11621 [DTC]    
1 63273U 25053J   26158.65720258  .00198552  00000+0  15089-2 0  9997
2 63273  42.9991 289.5236 0002367 256.2831 103.7773 15.70921712 71828
STARLINK-11615 [DTC]    
1 63274U 25053K   26157.80419123  .00187504  00000+0  14304-2 0  9994
2 63274  42.9966 295.1929 0003815 267.2944  92.7487 15.70862170 71684
STARLINK-11608 [DTC]    
1 63275U 25053L   26158.10088086  .00215654  00000+0  16376-2 0  9998
2 63275  43.0013 293.1036 0001996 269.5971  90.4668 15.70887077 71724
STARLINK-11623 [DTC]    
1 63276U 25053M   26158.64671323  .00134564  00000+0  10340-2 0  9995
2 63276  43.0003 290.3361 0002185 258.0931 101.9692 15.70869183 71806
STARLINK-33660          
1 63278U 25053P   26158.55127436  .00026494  00000+0  96869-3 0  9991
2 63278  43.0049  94.5453 0003934 263.6569  96.3835 15.27581018 69933
STARLINK-33611          
1 63279U 25053Q   26158.12604191  .00024092  00000+0  88160-3 0  9990
2 63279  43.0022  93.0530 0002012 270.2497  89.8124 15.27599188 70022
STARLINK-33646          
1 63280U 25053R   26158.51530484  .00027208  00000+0  99488-3 0  9995
2 63280  43.0015  94.2714 0002180 265.8243  94.2359 15.27569428 69930
STARLINK-33665          
1 63281U 25053S   26156.13954842  .00022973  00000+0  84112-3 0  9992
2 63281  42.9968 107.3951 0000358 188.2751 171.8095 15.27604237 69579
STARLINK-33603          
1 63282U 25053T   26158.09742838  .00019235  00000+0  70580-3 0  9991
2 63282  43.0002  97.1394 0003409 282.4286  77.6184 15.27618693 69863
STARLINK-33669          
1 63283U 25053U   26158.10885322  .00000931  00000+0  43364-4 0  9994
2 63283  43.0004  96.3744 0001446 265.5426  94.5260 15.27574019 69870
STARLINK-33673          
1 63284U 25053V   26158.07513377  .00029164  00000+0  10637-2 0  9993
2 63284  43.0045  89.1894 0000588 268.4345  91.6439 15.27626333 70066
STARLINK-33662          
1 63285U 25053W   26158.52301568  .00019717  00000+0  72453-3 0  9999
2 63285  42.9996  94.3273 0001712 270.8302  89.2354 15.27560487 69939
STARLINK-33613          
1 63286U 25053X   26158.54485007  .00018313  00000+0  67310-3 0  9990
2 63286  43.0032  94.4956 0004315 263.6254  96.4107 15.27587116 69934
STARLINK-33680          
1 63287U 25053Y   26158.50758991  .00024066  00000+0  88031-3 0  9997
2 63287  42.9964  94.2085 0002699 276.8479  83.2065 15.27611651 69980
COSMOS 2585 (RODNIK-S *)
1 63288U 25054A   26158.88214189  .00000039  00000+0  21134-3 0  9991
2 63288  82.4938  84.4337 0025706  56.1685 304.1836 12.42866971 55701
COSMOS 2586 (RODNIK-S *)
1 63289U 25054B   26158.85743056  .00000037  00000+0  19484-3 0  9992
2 63289  82.4924  84.3518 0022098  45.0848 315.2020 12.42876969 55690
COSMOS 2587 (RODNIK-S *)
1 63290U 25054C   26158.82923534  .00000045  00000+0  25501-3 0  9998
2 63290  82.4976  84.5330 0015898  35.3641 324.8490 12.42892719 55694
2025-055A               
1 63291U 25055A   26158.84316166  .00009800  00000+0  50425-3 0  9990
2 63291  97.6524 298.6569 0016080 171.8339 188.3159 15.16532454 67631
2025-055B               
1 63292U 25055B   26158.79981936  .00009028  00000+0  52762-3 0  9996
2 63292  97.6500 299.6350 0036675 182.9818 177.1199 15.11547315 67662
2025-055C               
1 63293U 25055C   26158.80653610  .00008901  00000+0  53848-3 0  9999
2 63293  97.6506 299.5312 0043240 170.9886 189.2129 15.10081100 67654
2025-055D               
1 63294U 25055D   26158.85382003  .00010194  00000+0  52472-3 0  9999
2 63294  97.6512 298.5643 0015721 167.4111 192.7518 15.16512005 67596
2025-055E               
1 63295U 25055E   26158.85732854  .00010136  00000+0  52123-3 0  9992
2 63295  97.6498 298.4827 0014270 162.9337 197.2379 15.16569377 67590
2025-055F               
1 63296U 25055F   26158.88731455  .00009270  00000+0  47875-3 0  9997
2 63296  97.6519 298.5824 0012536 153.5445 206.6430 15.16464101 67594
2025-055G               
1 63297U 25055G   26158.86773558  .00020261  00000+0  81061-3 0  9994
2 63297  97.6468 301.8334 0008751 179.5187 180.6060 15.25084753 67813
